IRIDIUM 119             
1 42959U 17061E   25089.81753343  .00000480  00000+0  16426-3 0  9995
2 42959  86.4021 210.4838 0002134  89.4970 270.6470 14.34218018391264
IRIDIUM 107             
1 42960U 17061F   25089.83655807  .00000209  00000+0  67718-4 0  9995
2 42960  86.4021 210.4943 0001752  86.3432 273.7964 14.34215152391276
IRIDIUM 132             
1 42961U 17061G   25089.77313036  .00000410  00000+0  13919-3 0  9991
2 42961  86.4019 210.5032 0001969  93.2656 266.8765 14.34216197391260
IRIDIUM 136             
1 42962U 17061H   25089.80484414  .00000618  00000+0  21353-3 0  9996
2 42962  86.4023 210.4944 0002055  86.6470 273.4961 14.34215049391283
IRIDIUM 139             
1 42963U 17061J   25089.81118344  .00000598  00000+0  20641-3 0  9990
2 42963  86.4022 210.5468 0001867  92.6089 267.5321 14.34221411391293
IRIDIUM 125             
1 42964U 17061K   25089.79850636  .00000874  00000+0  30484-3 0  9998
2 42964  86.4023 210.6050 0002220  79.6543 280.4903 14.34216457391303
IRIDIUM 135             
1 43070U 17083A   25089.70286247 -.00000189  00000+0 -74473-4 0  9991
2 43070  86.3997 147.4214 0002256 100.1041 260.0410 14.34216880380587
IRIDIUM 138             
1 43071U 17083B   25089.65846537  .00000090  00000+0  24993-4 0  9991
2 43071  86.3981 147.1214 0002722  86.7839 273.3668 14.34217161380563
